STARLINK-3368           
1 51107U 22005D   22038.65170232  .00052632  00000+0  37632-3 0  9995
2 51107  53.2203 177.4643 0001125  61.1195 298.9938 15.73247012  4403
STARLINK-3362           
1 51108U 22005E   22038.65148252  .00011998  00000+0  89815-4 0  9994
2 51108  53.2212 177.4644 0001311  76.0596 284.0570 15.73190734  4408
STARLINK-3358           
1 51109U 22005F   22038.59144232 -.00442086  00000+0 -27230-2 0  9991
2 51109  53.2171 177.0524 0003505 169.1438 190.9661 15.77652658  4400
STARLINK-3344           
1 51110U 22005G   22038.58772998 -.00007943  00000+0 -52156-4 0  9994
2 51110  53.2205 177.7751 0001578  73.3785 286.7408 15.73229015  3289
STARLINK-3173           
1 51111U 22005H   22038.58693950 -.00005597  00000+0 -35400-4 0  9991
2 51111  53.2221 177.7712 0001415  86.5226 273.5956 15.73254907  4394
STARLINK-3374           
1 51112U 22005J   22038.65114582  .00015270  00000+0  11298-3 0  9994
2 51112  53.2210 177.4609 0001658  51.2997 308.8172 15.73208531  4404
STARLINK-3372           
1 51113U 22005K   22037.88849745 -.00176064  00000+0 -12836-2 0  9994
2 51113  53.2217 181.2308 0000737 105.1191 254.9911 15.73071918  3175
STARLINK-3375           
1 51114U 22005L   22038.65136131  .00044346  00000+0  31804-3 0  9991
2 51114  53.2204 177.4633 0001462  54.9460 305.1697 15.73249763  4408
STARLINK-3397           
1 51115U 22005M   22038.65060578 -.00021467  00000+0 -14927-3 0  9991
2 51115  53.2211 177.4574 0001858  45.3844 314.7328 15.73143967  4406
STARLINK-3243           
1 51116U 22005N   22038.65101926  .00031124  00000+0  22487-3 0  9994
2 51116  53.2206 177.4609 0001003  60.6333 299.4787 15.73250968  4403
STARLINK-3391           
1 51117U 22005P   22038.65015776  .00014782  00000+0  10969-3 0  9995
2 51117  53.2208 177.4535 0001022  92.0336 268.0802 15.73170575  4402
STARLINK-3394           
1 51118U 22005Q   22038.65070132  .00056530  00000+0  40412-3 0  9996
2 51118  53.2220 177.4610 0001218  44.0927 316.0190 15.73221570  4407
STARLINK-3390           
1 51119U 22005R   22038.58610836  .00979274  00000+0  58838-2 0  9999
2 51119  53.2211 177.7641 0007532 258.3279 101.6896 15.74856127  4392
STARLINK-3398           
1 51120U 22005S   22038.64981689  .00006277  00000+0  49114-4 0  9998
2 51120  53.2197 177.4526 0001569  49.7441 310.3716 15.73196031  4405
STARLINK-3399           
1 51121U 22005T   22038.58672732  .00018831  00000+0  13812-3 0  9992
2 51121  53.2218 177.7676 0001889 106.2283 253.8946 15.73229114  4390
STARLINK-3373           
1 51122U 22005U   22038.39581399  .00011243  00000+0  84474-4 0  9993
2 51122  53.2220 178.7101 0001605  89.2454 270.8750 15.73184644  3258
STARLINK-3392           
1 51123U 22005V   22038.58617679 -.00000121  00000+0  35580-5 0  9995
2 51123  53.2215 177.7656 0001567  43.4013 316.7130 15.73195495  4368
STARLINK-3389           
1 51124U 22005W   22038.39547987  .00015137  00000+0  11210-3 0  9993
2 51124  53.2217 178.7080 0001825  82.5396 277.5832 15.73195156  3252
STARLINK-3387           
1 51125U 22005X   22038.58573722  .00003470  00000+0  29196-4 0  9991
2 51125  53.2212 177.7631 0001528  71.9958 288.1229 15.73145729  4390
STARLINK-3386           
1 51126U 22005Y   22038.64934936  .00027448  00000+0  19771-3 0  9995
2 51126  53.2205 177.4470 0000553  69.9283 290.1797 15.73393450  4407
STARLINK-3370           
1 51127U 22005Z   22037.82346997  .00097470  00000+0  68616-3 0  9993
2 51127  53.2221 181.5327 0000773 226.0108 134.0849 15.73360209  4274
STARLINK-3400           
1 51128U 22005AA  22038.39373573  .00615549  00000+0  37476-2 0  9999
2 51128  53.2215 178.6957 0006852 231.1605 128.8804 15.75155353  3249
STARLINK-3396           
1 51129U 22005AB  22038.61153697 -.00325935  00000+0 -14484-2 0  9991
2 51129  53.2213 176.4484 0002171  36.8553 323.2621 15.84399765  4416
STARLINK-3395           
1 51130U 22005AC  22038.64914581  .00008373  00000+0  64000-4 0  9996
2 51130  53.2210 177.4463 0001384  52.1250 307.9895 15.73206120  4404
STARLINK-3388           
1 51131U 22005AD  22038.39469757  .00004953  00000+0  39696-4 0  9992
2 51131  53.2211 178.7008 0001270   8.1851 351.9190 15.73192300  3249
STARLINK-3393           
1 51132U 22005AE  22038.64892213  .00029208  00000+0  21175-3 0  9990
2 51132  53.2211 177.4474 0001459  57.7202 302.3959 15.73205305  4404
STARLINK-3356           
1 51133U 22005AF  22038.52132700 -.00149959  00000+0 -10765-2 0  9996
2 51133  53.2218 178.0682 0000528 347.9226  12.1781 15.73346492  4385
STARLINK-3183           
1 51134U 22005AG  22037.89450375 -.00358157  00000+0 -21176-2 0  9997
2 51134  53.2135 180.5188 0002104  31.4679 328.6469 15.78350032  4290
STARLINK-3363           
1 51135U 22005AH  22038.64857987  .00177987  00000+0  12566-2 0  9993
2 51135  53.2205 177.4410 0001609  55.0992 305.0179 15.72999501  4405
STARLINK-3253           
1 51136U 22005AJ  22038.66283155 -.00256724  31960-4 -80440-3 0  9996
2 51136  53.2216 176.0535 0010914 266.1192  93.8588 15.90398661  4425
STARLINK-3180           
1 51137U 22005AK  22038.64791223 -.00017586  00000+0 -12113-3 0  9994
2 51137  53.2198 177.4377 0001683  49.5061 310.6105 15.73201559  4408
STARLINK-3177           
1 51138U 22005AL  22038.64823237  .00096297  00000+0  67818-3 0  9992
2 51138  53.2194 177.4396 0000905  57.1529 302.9578 15.73355698  4408
STARLINK-3172           
1 51139U 22005AM  22038.58419024 -.00006881  00000+0 -44610-4 0  9999
2 51139  53.2190 177.7513 0001915  32.1765 327.9372 15.73216590  4390
STARLINK-3175           
1 51140U 22005AN  22038.64803407 -.00029203  00000+0 -20479-3 0  9999
2 51140  53.2190 177.4377 0001811  50.2035 309.9144 15.73151355  4409
STARLINK-3179           
1 51141U 22005AP  22038.58395345  .00004394  00000+0  35746-4 0  9996
2 51141  53.2216 177.7488 0001567  68.5320 291.5867 15.73177457  4399
STARLINK-3369           
1 51142U 22005AQ  22038.64811844  .00052198  00000+0  37261-3 0  9999
2 51142  53.2188 177.4395 0001210  44.2908 315.8208 15.73288861  4436
STARLINK-3184           
1 51143U 22005AR  22038.64714726  .00009531  00000+0  72231-4 0  9991
2 51143  53.2203 177.4305 0001775  47.8923 312.2248 15.73207681  4401
STARLINK-3185           
1 51144U 22005AS  22038.58406563 -.00005247  00000+0 -32939-4 0  9995
2 51144  53.2211 177.7510 0001911  61.8128 298.3085 15.73229283  4390
STARLINK-3365           
1 51145U 22005AT  22038.64702869  .00005444  00000+0  43206-4 0  9997
2 51145  53.2195 177.4299 0001749  46.4190 313.6975 15.73188972  4400
STARLINK-3354           
1 51146U 22005AU  22038.01244289  .00128101  00000+0  89075-3 0  9995
2 51146  53.2234 180.5809 0003796   9.1448 350.9641 15.73521107  3182
STARLINK-3352           
1 51147U 22005AV  22038.64724222 -.00048127  00000+0 -34016-3 0  9991
2 51147  53.2200 177.4307 0001824  71.1314 288.9904 15.73217970  4403
STARLINK-3359           
1 51148U 22005AW  22038.58338947 -.00005779  00000+0 -36733-4 0  9995
2 51148  53.2207 177.7444 0001242  53.0306 307.0828 15.73234921  4391
STARLINK-3360           
1 51149U 22005AX  22038.64679147  .00039858  00000+0  28645-3 0  9998
2 51149  53.2197 177.4286 0001359  35.4079 324.7031 15.73249991  4408
STARLINK-3357           
1 51150U 22005AY  22038.64734224  .00061061  00000+0  43438-3 0  9996
2 51150  53.2222 177.4351 0001192  42.2738 317.8374 15.73304697  4403
STARLINK-3361           
1 51151U 22005AZ  22038.58361914  .00013014  00000+0  10088-3 0  9992
2 51151  53.2193 177.7435 0008908 332.6279  27.4270 15.72232036  4398
STARLINK-3364           
1 51152U 22005BA  22038.64655545  .00149420  00000+0  10327-2 0  9992
2 51152  53.2207 177.4288 0000075 175.2418 184.8603 15.73592604  4402
L-SAR 01A               
1 51284U 22007A   22039.07464660  .00080783  00000+0  86789-2 0  9995
2 51284  97.8070  48.2911 0003261 101.3349 319.5139 14.88138327  1941
CZ-4C R/B               
1 51285U 22007B   22038.57694494  .00005934  00000+0  25893-3 0  9995
2 51285  97.8450  48.3988 0124639 348.7875  11.0579 15.15742396  1909
CZ-4C DEB               
1 51286U 22007C   22034.95662599  .00313225  00000+0  54619-1 0  9996
2 51286  97.7966  43.7699 0127917 187.2623 183.8710 14.60977212  1314
ASCENT                  
1 51287U 21118E   22037.20605106 -.00000057  00000+0  00000+0 0  9991
2 51287   0.1323 113.8875 0002651 136.3445 187.7236  1.01234817   200
ELSA-D CLIENT           
1 51288U 21022AQ  22038.67606886  .00003358  00000+0  22742-3 0  9991
2 51288  97.5395 301.2577 0017596 218.9738 141.0223 15.07045477  2011
GASPACS                 
1 51439U 98067TB  22032.12147602  .00058112  00000+0  99171-3 0  9990
2 51439  51.6446 290.3932 0008615  94.3312 265.9243 15.50724425   905
1998-067TC              
1 51440U 98067TC  22032.31436521  .00083961  00000+0  14120-2 0  9994
2 51440  51.6433 289.4285 0008517  88.8247 271.4295 15.50977645   991
1998-067TD              
1 51441U 98067TD  22032.18609058  .00022648  00000+0  39623-3 0  9998
2 51441  51.6434 290.0722 0008937  96.5777 263.6310 15.50493879   967
1998-067TE              
1 51442U 98067TE  22032.12107052  .00022574  00000+0  39292-3 0  9990
2 51442  51.6438 290.3859 0008933 103.0832 257.1240 15.50641006   910
1998-067TF              
1 51443U 98067TF  22032.31366008  .00047227  00000+0  80019-3 0  9995
2 51443  51.6450 289.4234 0010302  87.9859 272.2652 15.50999061   904
CSG-2                   
1 51444U 22008A   22038.82648764  .00000984  00000+0  13031-3 0  9991
2 51444  97.8959 224.3753 0004788 123.8667 236.2991 14.82124745  1015
STARLINK A              
1 51456U 22010A   22037.59202951  .49730979  12231-4  12303-2 0  9995
2 51456  53.2082 159.5480 0015581 174.4115 185.9843 16.44545333  1757
STARLINK B              
1 51457U 22010B   22037.00001157 -.00956184  30379-3 -13261-2 0  9990
2 51457  53.2173 162.8217 0078778 164.2324 275.7181 15.99210230  1656
